{"type": "FeatureCollection", "features": [ {"type": "Feature", "properties": {"norad_id": 28659, "name": "DIRECTV 8", "group": "intelsat", "lat": 0.030105281283458796, "lon": 59.887799289407006, "alt_km": 35799.0912293463, "timestamp": "2025-12-02T07:10:08.777021+00:00", "meta": {"OBJECT_NAME": "DIRECTV 8", "OBJECT_ID": "2005-019A", "EPOCH": "2025-12-01T16:40:23.687040", "MEAN_MOTION": 1.00271171, "ECCENTRICITY": 0.0003189, "INCLINATION": 0.0147, "RA_OF_ASC_NODE": 288.7925, "ARG_OF_PERICENTER": 328.872, "MEAN_ANOMALY": 304.2088, "EPHEMERIS_TYPE": 0, "CLASSIFICATION_TYPE": "U", "NORAD_CAT_ID": 28659, "ELEMENT_SET_NO": 999, "REV_AT_EPOCH": 7509, "BSTAR": 0, "MEAN_MOTION_DOT": 2.3e-07, "MEAN_MOTION_DDOT": 0}, "tle": {"line1": "1 28659U 05019A   25335.69471860  .00000023  00000+0  00000+0 0  9997", "line2": "2 28659   0.0147 288.7925 0003189 328.8720 304.2088  1.00271171 75092"}}, "geometry": {"type": "Point", "coordinates": [59.887799289407006, 0.030105281283458796]}}, {"type": "Feature", "properties": {"norad_id": 28702, "name": "GALAXY 28 (G-28)", "group": "intelsat", "lat": 0.4449011662843655, "lon": 90.18776859280948, "alt_km": 35797.45394219727, "timestamp": "2025-12-02T07:10:08.777034+00:00", "meta": {"OBJECT_NAME": "GALAXY 28 (G-28)", "OBJECT_ID": "2005-022A", "EPOCH": "2025-12-01T15:06:17.700192", "MEAN_MOTION": 1.00270786, "ECCENTRICITY": 0.0002652, "INCLINATION": 2.7903, "RA_OF_ASC_NODE": 81.4073, "ARG_OF_PERICENTER": 180.5131, "MEAN_ANOMALY": 306.6879, "EPHEMERIS_TYPE": 0, "CLASSIFICATION_TYPE": "U", "NORAD_CAT_ID": 28702, "ELEMENT_SET_NO": 999, "REV_AT_EPOCH": 4999, "BSTAR": 0, "MEAN_MOTION_DOT": -1.66e-06, "MEAN_MOTION_DDOT": 0}, "tle": {"line1": "1 28702U 05022A   25335.62937153 -.00000166  00000+0  00000+0 0  9994", "line2": "2 28702   2.7903  81.4073 0002652 180.5131 306.6879  1.00270786 49990"}}, "geometry": {"type": "Point", "coordinates": [90.18776859280948, 0.4449011662843655]}}, {"type": "Feature", "properties": {"norad_id": 29236, "name": "GALAXY 16 (G-16)", "group": "intelsat", "lat": 0.0019705288412791714, "lon": 79.9029811066724, "alt_km": 35798.21452165081, "timestamp": "2025-12-02T07:10:08.777046+00:00", "meta": {"OBJECT_NAME": "GALAXY 16 (G-16)", "OBJECT_ID": "2006-023A", "EPOCH": "2025-12-01T15:03:17.987328", "MEAN_MOTION": 1.00270395, "ECCENTRICITY": 0.0002803, "INCLINATION": 0.0267, "RA_OF_ASC_NODE": 225.3015, "ARG_OF_PERICENTER": 25.4892, "MEAN_ANOMALY": 306.776, "EPHEMERIS_TYPE": 0, "CLASSIFICATION_TYPE": "U", "NORAD_CAT_ID": 29236, "ELEMENT_SET_NO": 999, "REV_AT_EPOCH": 7099, "BSTAR": 0, "MEAN_MOTION_DOT": -1.05e-06, "MEAN_MOTION_DDOT": 0}, "tle": {"line1": "1 29236U 06023A   25335.62729152 -.00000105  00000+0  00000+0 0  9990", "line2": "2 29236   0.0267 225.3015 0002803  25.4892 306.7760  1.00270395 70991"}}, "geometry": {"type": "Point", "coordinates": [79.9029811066724, 0.0019705288412791714]}}, {"type": "Feature", "properties": {"norad_id": 29494, "name": "DIRECTV 9S", "group": "intelsat", "lat": -0.16613478693920547, "lon": 77.71184907857564, "alt_km": 35799.36596078926, "timestamp": "2025-12-02T07:10:08.777058+00:00", "meta": {"OBJECT_NAME": "DIRECTV 9S", "OBJECT_ID": "2006-043A", "EPOCH": "2025-12-01T11:37:15.220416", "MEAN_MOTION": 1.00270787, "ECCENTRICITY": 0.00031036, "INCLINATION": 1.9085, "RA_OF_ASC_NODE": 83.3306, "ARG_OF_PERICENTER": 164.8437, "MEAN_ANOMALY": 255.5441, "EPHEMERIS_TYPE": 0, "CLASSIFICATION_TYPE": "U", "NORAD_CAT_ID": 29494, "ELEMENT_SET_NO": 999, "REV_AT_EPOCH": 4940, "BSTAR": 0, "MEAN_MOTION_DOT": -9.2e-07, "MEAN_MOTION_DDOT": 0}, "tle": {"line1": "1 29494U 06043A   25335.48420394 -.00000092  00000+0  00000+0 0  9993", "line2": "2 29494   1.9085  83.3306 0003103 164.8437 255.5441  1.00270787 49401"}}, "geometry": {"type": "Point", "coordinates": [77.71184907857564, -0.16613478693920547]}}, {"type": "Feature", "properties": {"norad_id": 31307, "name": "GALAXY 17 (G-17)", "group": "intelsat", "lat": 0.5079678935455677, "lon": 93.8663360346829, "alt_km": 35807.66354088456, "timestamp": "2025-12-02T07:10:08.777083+00:00", "meta": {"OBJECT_NAME": "GALAXY 17 (G-17)", "OBJECT_ID": "2007-016B", "EPOCH": "2025-12-01T18:32:32.106912", "MEAN_MOTION": 1.00269561, "ECCENTRICITY": 0.0006148, "INCLINATION": 2.4697, "RA_OF_ASC_NODE": 82.4105, "ARG_OF_PERICENTER": 155.0529, "MEAN_ANOMALY": 26.5643, "EPHEMERIS_TYPE": 0, "CLASSIFICATION_TYPE": "U", "NORAD_CAT_ID": 31307, "ELEMENT_SET_NO": 999, "REV_AT_EPOCH": 6782, "BSTAR": 0, "MEAN_MOTION_DOT": -1.85e-06, "MEAN_MOTION_DDOT": 0}, "tle": {"line1": "1 31307U 07016B   25335.77259383 -.00000185  00000+0  00000+0 0  9993", "line2": "2 31307   2.4697  82.4105 0006148 155.0529  26.5643  1.00269561 67829"}}, "geometry": {"type": "Point", "coordinates": [93.8663360346829, 0.5079678935455677]}}, {"type": "Feature", "properties": {"norad_id": 31862, "name": "DIRECTV 10", "group": "intelsat", "lat": -0.0068634775501249965, "lon": 76.12358129293096, "alt_km": 35786.49246125488, "timestamp": "2025-12-02T07:10:08.777107+00:00", "meta": {"OBJECT_NAME": "DIRECTV 10", "OBJECT_ID": "2007-032A", "EPOCH": "2025-12-01T15:02:03.106176", "MEAN_MOTION": 1.00272967, "ECCENTRICITY": 3.05e-05, "INCLINATION": 0.0145, "RA_OF_ASC_NODE": 137.1241, "ARG_OF_PERICENTER": 63.3925, "MEAN_ANOMALY": 352.9493, "EPHEMERIS_TYPE": 0, "CLASSIFICATION_TYPE": "U", "NORAD_CAT_ID": 31862, "ELEMENT_SET_NO": 999, "REV_AT_EPOCH": 4361, "BSTAR": 0, "MEAN_MOTION_DOT": -8.2e-07, "MEAN_MOTION_DDOT": 0}, "tle": {"line1": "1 31862U 07032A   25335.62642484 -.00000082  00000+0  00000+0 0  9995", "line2": "2 31862   0.0145 137.1241 0000305  63.3925 352.9493  1.00272967 43610"}}, "geometry": {"type": "Point", "coordinates": [76.12358129293096, -0.0068634775501249965]}}, {"type": "Feature", "properties": {"norad_id": 32253, "name": "INTELSAT 11 (IS-11)", "group": "intelsat", "lat": 0.5187887470946638, "lon": 90.52863105948676, "alt_km": 36166.97343426492, "timestamp": "2025-12-02T07:10:08.777121+00:00", "meta": {"OBJECT_NAME": "INTELSAT 11 (IS-11)", "OBJECT_ID": "2007-044B", "EPOCH": "2025-12-01T11:41:52.277568", "MEAN_MOTION": 0.99047742, "ECCENTRICITY": 0.00092085, "INCLINATION": 3.0482, "RA_OF_ASC_NODE": 81.103, "ARG_OF_PERICENTER": 159.8514, "MEAN_ANOMALY": 280.3727, "EPHEMERIS_TYPE": 0, "CLASSIFICATION_TYPE": "U", "NORAD_CAT_ID": 32253, "ELEMENT_SET_NO": 999, "REV_AT_EPOCH": 6649, "BSTAR": 0, "MEAN_MOTION_DOT": -2.9e-07, "MEAN_MOTION_DDOT": 0}, "tle": {"line1": "1 32253U 07044B   25335.48741062 -.00000029  00000+0  00000+0 0  9990", "line2": "2 32253   3.0482  81.1030 0009208 159.8514 280.3727  0.99047742 66495"}}, "geometry": {"type": "Point", "coordinates": [90.52863105948676, 0.5187887470946638]}}, {"type": "Feature", "properties": {"norad_id": 32388, "name": "HORIZONS-2", "group": "intelsat", "lat": 0.7969046082281597, "lon": 105.09205370936236, "alt_km": 35804.73287246294, "timestamp": "2025-12-02T07:10:08.777134+00:00", "meta": {"OBJECT_NAME": "HORIZONS-2", "OBJECT_ID": "2007-063B", "EPOCH": "2025-12-01T18:36:01.772064", "MEAN_MOTION": 1.00272703, "ECCENTRICITY": 0.0004861, "INCLINATION": 2.0906, "RA_OF_ASC_NODE": 83.083, "ARG_OF_PERICENTER": 179.2837, "MEAN_ANOMALY": 13.7397, "EPHEMERIS_TYPE": 0, "CLASSIFICATION_TYPE": "U", "NORAD_CAT_ID": 32388, "ELEMENT_SET_NO": 999, "REV_AT_EPOCH": 6583, "BSTAR": 0, "MEAN_MOTION_DOT": -2.32e-06, "MEAN_MOTION_DDOT": 0}, "tle": {"line1": "1 32388U 07063B   25335.77502051 -.00000232  00000+0  00000+0 0  9991", "line2": "2 32388   2.0906  83.0830 0004861 179.2837  13.7397  1.00272703 65835"}}, "geometry": {"type": "Point", "coordinates": [105.09205370936236, 0.7969046082281597]}}, {"type": "Feature", "properties": {"norad_id": 32729, "name": "DIRECTV 11", "group": "intelsat", "lat": 0.0032910663621488557, "lon": 79.69562681621618, "alt_km": 35788.62596648556, "timestamp": "2025-12-02T07:10:08.777146+00:00", "meta": {"OBJECT_NAME": "DIRECTV 11", "OBJECT_ID": "2008-013A", "EPOCH": "2025-12-01T15:03:17.987328", "MEAN_MOTION": 1.00262996, "ECCENTRICITY": 9.13e-05, "INCLINATION": 0.0132, "RA_OF_ASC_NODE": 202.9739, "ARG_OF_PERICENTER": 327.4852, "MEAN_ANOMALY": 26.9234, "EPHEMERIS_TYPE": 0, "CLASSIFICATION_TYPE": "U", "NORAD_CAT_ID": 32729, "ELEMENT_SET_NO": 999, "REV_AT_EPOCH": 4361, "BSTAR": 0, "MEAN_MOTION_DOT": -1.03e-06, "MEAN_MOTION_DDOT": 0}, "tle": {"line1": "1 32729U 08013A   25335.62729152 -.00000103  00000+0  00000+0 0  9990", "line2": "2 32729   0.0132 202.9739 0000913 327.4852  26.9234  1.00262996 43612"}}, "geometry": {"type": "Point", "coordinates": [79.69562681621618, 0.0032910663621488557]}}, {"type": "Feature", "properties": {"norad_id": 32951, "name": "GALAXY 18 (G-18)", "group": "intelsat", "lat": 0.0421589173041451, "lon": 55.895915281308866, "alt_km": 35799.42055425151, "timestamp": "2025-12-02T07:10:08.777158+00:00", "meta": {"OBJECT_NAME": "GALAXY 18 (G-18)", "OBJECT_ID": "2008-024A", "EPOCH": "2025-12-01T16:39:16.295040", "MEAN_MOTION": 1.00272386, "ECCENTRICITY": 0.0003346, "INCLINATION": 0.021, "RA_OF_ASC_NODE": 335.3727, "ARG_OF_PERICENTER": 277.6866, "MEAN_ANOMALY": 304.5377, "EPHEMERIS_TYPE": 0, "CLASSIFICATION_TYPE": "U", "NORAD_CAT_ID": 32951, "ELEMENT_SET_NO": 999, "REV_AT_EPOCH": 4387, "BSTAR": 0, "MEAN_MOTION_DOT": 0, "MEAN_MOTION_DDOT": 0}, "tle": {"line1": "1 32951U 08024A   25335.69393860  .00000000  00000+0  00000+0 0  9994", "line2": "2 32951   0.0210 335.3727 0003346 277.6866 304.5377  1.00272386 43873"}}, "geometry": {"type": "Point", "coordinates": [55.895915281308866, 0.0421589173041451]}}]}